OBJECT_NAME,OBJECT_ID,EPOCH,MEAN_MOTION,ECCENTRICITY,INCLINATION,RA_OF_ASC_NODE,ARG_OF_PERICENTER,MEAN_ANOMALY,EPHEMERIS_TYPE,CLASSIFICATION_TYPE,NORAD_CAT_ID,ELEMENT_SET_NO,REV_AT_EPOCH,BSTAR,MEAN_MOTION_DOT,MEAN_MOTION_DDOT
INTELSAT 21 (IS-21),2012-045A,2026-06-16T04:32:14.180064,1.00270511,.0001324,0.0151,341.1956,124.6568,168.6678,0,U,38749,999,5051,0,-.285E-5,0
INTELSAT 23 (IS-23),2012-057A,2026-06-16T03:11:04.919712,1.00273947,.0000367,0.0100,329.6093,117.1408,172.4414,0,U,38867,999,4994,0,-.285E-5,0
FM-6,2013-058A,2026-06-15T08:16:02.257248,1.00260139,.00026592,0.0275,33.5220,135.8142,101.9068,0,U,39360,999,4605,0,0,0
INTELSAT 30 (IS-30),2014-062A,2026-06-16T02:17:47.468256,1.00271660,.0001343,0.0245,43.6322,331.7581,188.3801,0,U,40271,999,678,0,-.151E-5,0
DIRECTV 14,2014-078B,2026-06-15T09:11:22.190208,1.00272172,.00003307,0.0133,23.6782,263.2070,15.3817,0,U,40333,999,4202,0,-.122E-5,0
DIRECTV 15,2015-026A,2026-06-15T06:39:39.874176,1.00276521,.00002776,0.0162,20.7674,308.0997,291.7459,0,U,40663,999,4044,0,-.1E-5,0
SKY MEXICO-1,2015-026B,2026-06-16T05:25:54.071328,1.00270399,.0002014,0.0175,7.0874,99.7224,160.3631,0,U,40664,999,4044,0,-.235E-5,0
INTELSAT 34 (IS-34),2015-039A,2026-06-15T19:38:30.103008,1.00270638,.00006816,0.0111,330.7780,4.9623,167.5007,0,U,40874,999,3962,0,-.284E-5,0
INTELSAT 31 (IS-31),2016-035A,2026-06-16T05:00:38.648160,1.00269927,.0001125,0.0198,270.0697,348.0306,346.4933,0,U,41581,999,3667,0,-.151E-5,0
INTELSAT 36 (IS-36),2016-053A,2026-06-16T00:20:32.699040,1.00270808,.0002241,0.0104,4.5382,327.5214,5.8635,0,U,41747,999,3594,0,-.24E-6,0
INTELSAT 32E (IS-32E),2017-007B,2026-06-15T16:16:32.870208,1.00268477,.00010742,0.0095,325.1198,1.1191,138.6819,0,U,41945,999,3421,0,-.267E-5,0
INTELSAT 35E (IS-35E),2017-041A,2026-06-16T00:52:21.281088,1.00268832,.0001597,0.0173,323.5902,114.9763,164.3310,0,U,42818,999,3280,0,-.238E-5,0
INTELSAT 37E (IS-37E),2017-059A,2026-06-16T02:39:46.687392,1.00271763,.0002356,0.0185,24.5523,81.8712,179.9212,0,U,42950,999,3205,0,-.141E-5,0
AZERSPACE 2 (IS-38),2018-074A,2026-06-16T02:57:44.962848,1.00270182,.0001205,0.0158,340.7914,103.6542,269.4949,0,U,43632,999,2843,0,.137E-5,0
HORIZONS-3E,2018-074B,2026-06-14T15:37:13.094400,1.00270601,.00009666,0.0187,163.9480,106.2603,36.0409,0,U,43633,999,2831,0,-.24E-6,0
AT&T T-16,2019-034A,2026-06-16T04:02:08.382048,1.00268495,.0000802,0.0196,57.8666,216.8512,309.3965,0,U,44333,999,2562,0,-.115E-5,0
INTELSAT 39 (IS-39),2019-049B,2026-06-15T11:38:41.646336,1.00270578,.00009386,0.0009,5.7459,308.1942,186.4495,0,U,44476,999,2511,0,.36E-6,0
GALAXY 30 (G-30),2020-056C,2026-06-16T04:09:38.741184,1.00270980,.0002086,0.0165,17.6847,67.8592,116.3081,0,U,46114,999,2128,0,.37E-6,0
GALAXY 33 (G-33),2022-128A,2026-06-16T04:46:49.367136,1.00271662,.0001596,0.0114,12.3589,75.2375,115.5857,0,U,54026,999,1373,0,.79E-6,0
GALAXY 34 (G-34),2022-128B,2026-06-15T12:26:48.200352,1.00271904,.00013101,0.0129,6.0107,96.4818,219.0064,0,U,54027,999,1389,0,.61E-6,0
GALAXY 31 (G-31),2022-153A,2026-06-16T04:09:38.741184,1.00270895,.0001014,0.0196,42.9244,32.9899,129.9306,0,U,54243,999,712,0,.13E-6,0
GALAXY 32 (G-32),2022-153B,2026-06-14T22:56:24.476640,1.00491998,.0015287,0.0165,349.6788,254.3091,272.5395,0,U,54244,999,1312,0,-.197E-5,0
GALAXY 35 (G-35),2022-170A,2026-06-16T03:53:38.566752,1.00268695,.0001817,0.0197,26.0505,60.8966,142.7913,0,U,54741,999,1288,0,0,0
GALAXY 36 (G-36),2022-170B,2026-06-16T03:08:12.264864,1.00270266,.0002505,0.0205,252.7933,191.2900,138.3738,0,U,54742,999,1276,0,-.185E-5,0
GALAXY 37 (G-37),2023-112A,2026-06-15T22:43:09.772032,1.00271514,.0001699,0.0257,63.8054,18.0301,36.1756,0,U,57493,999,1053,0,.49E-6,0
