INTELSAT 21 (IS-21)     
1 38749U 12045A   26167.18905301 -.00000285  00000+0  00000+0 0  9996
2 38749   0.0151 341.1956 0001324 124.6568 168.6678  1.00270511 50511
INTELSAT 23 (IS-23)     
1 38867U 12057A   26167.13269583 -.00000285  00000+0  00000+0 0  9990
2 38867   0.0100 329.6093 0000367 117.1408 172.4414  1.00273947 49947
FM-6                    
1 39360U 13058A   26166.34447057  .00000000  00000+0  00000+0 0  9991
2 39360   0.0275  33.5220 0002659 135.8142 101.9068  1.00260139 46050
INTELSAT 30 (IS-30)     
1 40271U 14062A   26167.09568829 -.00000151  00000+0  00000+0 0  9992
2 40271   0.0245  43.6322 0001343 331.7581 188.3801  1.00271660  6789
DIRECTV 14              
1 40333U 14078B   26166.38289572 -.00000122  00000+0  00000+0 0  9992
2 40333   0.0133  23.6782 0000330 263.2070  15.3817  1.00272172 42021
DIRECTV 15              
1 40663U 15026A   26166.27754484 -.00000100  00000+0  00000+0 0  9995
2 40663   0.0162  20.7674 0000277 308.0997 291.7459  1.00276521 40441
SKY MEXICO-1            
1 40664U 15026B   26167.22632027 -.00000235  00000+0  00000+0 0  9999
2 40664   0.0175   7.0874 0002014  99.7224 160.3631  1.00270399 40444
INTELSAT 34 (IS-34)     
1 40874U 15039A   26166.81840397 -.00000284  00000+0  00000+0 0  9995
2 40874   0.0111 330.7780 0000681   4.9623 167.5007  1.00270638 39628
INTELSAT 31 (IS-31)     
1 41581U 16035A   26167.20878065 -.00000151  00000+0  00000+0 0  9998
2 41581   0.0198 270.0697 0001125 348.0306 346.4933  1.00269927 36673
INTELSAT 36 (IS-36)     
1 41747U 16053A   26167.01426735 -.00000024  00000+0  00000+0 0  9993
2 41747   0.0104   4.5382 0002241 327.5214   5.8635  1.00270808 35949
INTELSAT 32E (IS-32E)   
1 41945U 17007B   26166.67815822 -.00000267  00000+0  00000+0 0  9992
2 41945   0.0095 325.1198 0001074   1.1191 138.6819  1.00268477 34214
INTELSAT 35E (IS-35E)   
1 42818U 17041A   26167.03635742 -.00000238  00000+0  00000+0 0  9990
2 42818   0.0173 323.5902 0001597 114.9763 164.3310  1.00268832 32804
INTELSAT 37E (IS-37E)   
1 42950U 17059A   26167.11095703 -.00000141  00000+0  00000+0 0  9995
2 42950   0.0185  24.5523 0002356  81.8712 179.9212  1.00271763 32058
AZERSPACE 2 (IS-38)     
1 43632U 18074A   26167.12343707  .00000137  00000+0  00000+0 0  9996
2 43632   0.0158 340.7914 0001205 103.6542 269.4949  1.00270182 28432
HORIZONS-3E             
1 43633U 18074B   26165.65084600 -.00000024  00000+0  00000+0 0  9993
2 43633   0.0187 163.9480 0000966 106.2603  36.0409  1.00270601 28310
AT&T T-16               
1 44333U 19034A   26167.16815257 -.00000115  00000+0  00000+0 0  9997
2 44333   0.0196  57.8666 0000802 216.8512 309.3965  1.00268495 25623
INTELSAT 39 (IS-39)     
1 44476U 19049B   26166.48520424  .00000036  00000+0  00000+0 0  9995
2 44476   0.0009   5.7459 0000938 308.1942 186.4495  1.00270578 25119
GALAXY 30 (G-30)        
1 46114U 20056C   26167.17336506  .00000037  00000+0  00000+0 0  9990
2 46114   0.0165  17.6847 0002086  67.8592 116.3081  1.00270980 21286
GALAXY 33 (G-33)        
1 54026U 22128A   26167.19918249  .00000079  00000+0  00000+0 0  9991
2 54026   0.0114  12.3589 0001596  75.2375 115.5857  1.00271662 13734
GALAXY 34 (G-34)        
1 54027U 22128B   26166.51861343  .00000061  00000+0  00000+0 0  9990
2 54027   0.0129   6.0107 0001310  96.4818 219.0064  1.00271904 13894
GALAXY 31 (G-31)        
1 54243U 22153A   26167.17336506  .00000013  00000+0  00000+0 0  9996
2 54243   0.0196  42.9244 0001014  32.9899 129.9306  1.00270895  7129
GALAXY 32 (G-32)        
1 54244U 22153B   26165.95583885 -.00000197  00000+0  00000+0 0  9999
2 54244   0.0165 349.6788 0015287 254.3091 272.5395  1.00491998 13126
GALAXY 35 (G-35)        
1 54741U 22170A   26167.16225193  .00000000  00000+0  00000+0 0  9992
2 54741   0.0197  26.0505 0001817  60.8966 142.7913  1.00268695 12883
GALAXY 36 (G-36)        
1 54742U 22170B   26167.13069751 -.00000185  00000+0  00000+0 0  9991
2 54742   0.0205 252.7933 0002505 191.2900 138.3738  1.00270266 12769
GALAXY 37 (G-37)        
1 57493U 23112A   26166.94664088  .00000049  00000+0  00000+0 0  9994
2 57493   0.0257  63.8054 0001699  18.0301  36.1756  1.00271514 10536
